0 COSMOS 2486
1 39177U 13028A   13282.18233883  .00000056  00000-0  25421-4 0  4010
2 39177 098.2922 356.0194 0013289 302.8489 057.1429 14.50865252 17910
0 COSMOS 2486
1 39177U 13028A   13282.45819789  .00000067  00000-0  28315-4 0  4023
2 39177 098.2923 356.2914 0013282 302.1022 057.8887 14.50865432 17951
0 COSMOS 2486
1 39177U 13028A   13282.80302164  .00000070  00000-0  29113-4 0  4038
2 39177 098.2923 356.6311 0013270 300.9663 059.0226 14.50865546 18004
0 COSMOS 2486
1 39177U 13028A   13283.14784577  .00000067  00000-0  28254-4 0  4040
2 39177 098.2923 356.9710 0013265 299.8705 060.1179 14.50865597 18058
0 COSMOS 2486
1 39177U 13028A   13283.35473998  .00000066  00000-0  27902-4 0  4054
2 39177 098.2923 357.1748 0013259 299.1628 060.8240 14.50865628 18086
0 COSMOS 2486
1 39177U 13028A   13283.63059914  .00000080  00000-0  31650-4 0  4065
2 39177 098.2922 357.4468 0013255 298.3323 061.6546 14.50865849 18124
0 COSMOS 2486
1 39177U 13028A   13283.69954042  .00037428  00000-0  94680-2 0  4052
2 39177 098.2910 357.5144 0013503 294.6243 065.4173 14.50954768 18081
0 COSMOS 2486
1 39177U 13028A   13283.83749324 -.00007755  00000-0 -19534-2 0  4072
2 39177 098.2940 357.6516 0012940 296.0122 064.1573 14.50920685 18153
0 COSMOS 2486
1 39177U 13028A   13284.04434488  .00005199  00000-0  13256-2 0  4082
2 39177 098.2922 357.8562 0012932 295.0291 064.9714 14.50933074 18187
0 COSMOS 2486
1 39177U 13028A   13285.42357522  .00000109  00000-0  38847-4 0  4113
2 39177 098.2910 359.2147 0013069 289.8159 070.1625 14.50930775 18382
0 COSMOS 2486
1 39177U 13028A   13285.76838334  .00000357  00000-0  10147-3 0  4123
2 39177 098.2911 359.5539 0013049 289.2224 070.7543 14.50931696 18430
0 COSMOS 2486
1 39177U 13028A   13286.11319272  .00000086  00000-0  33044-4 0  4130
2 39177 098.2906 359.8940 0013012 287.3502 072.6294 14.50930909 18486
0 COSMOS 2486
1 39177U 13028A   13286.45800067  .00000157  00000-0  50979-4 0  4140
2 39177 098.2907 000.2336 0012995 286.4276 073.5490 14.50931297 18535
0 COSMOS 2486
1 39177U 13028A   13286.80280894  .00000127  00000-0  43319-4 0  4157
2 39177 098.2908 000.5735 0013002 285.4147 074.5596 14.50931307 18583
0 COSMOS 2486
1 39177U 13028A   13287.14761851  .00000010  00000-0  13836-4 0  4165
2 39177 098.2908 000.9137 0013007 284.0280 075.9493 14.50930797 18630
0 COSMOS 2486
1 39177U 13028A   13287.42346492 -.00000007  00000-0  94714-5 0  4179
2 39177 098.2909 001.1855 0013005 283.2531 076.7208 14.50930748 18672
0 COSMOS 2486
1 39177U 13028A   13287.76827350 -.00000008  00000-0  93543-5 0  4184
2 39177 098.2911 001.5255 0013012 282.2733 077.6998 14.50930775 18726
0 COSMOS 2486
1 39177U 13028A   13288.11308271  .00000006  00000-0  12852-4 0  4191
2 39177 098.2909 001.8653 0013002 281.0217 078.9543 14.50930861 18772
0 COSMOS 2486
1 39177U 13028A   13288.45789055  .00000054  00000-0  25052-4 0  4202
2 39177 098.2910 002.2051 0013010 279.9903 079.9828 14.50931220 18821
0 COSMOS 2486
1 39177U 13028A   13288.80269892  .00000061  00000-0  26639-4 0  4214
2 39177 098.2910 002.5448 0013004 278.9282 081.0439 14.50931330 18875
0 COSMOS 2486
1 39177U 13028A   13289.14750756  .00000062  00000-0  27013-4 0  4225
2 39177 098.2913 002.8854 0012962 277.3994 082.5740 14.50931397 18927
0 COSMOS 2486
1 39177U 13028A   13289.42335412  .00000063  00000-0  27239-4 0  4236
2 39177 098.2914 003.1573 0012958 276.5661 083.4059 14.50931460 18965
0 COSMOS 2486
1 39177U 13028A   13289.76816244  .00000053  00000-0  24615-4 0  4245
2 39177 098.2917 003.4975 0012950 275.3520 084.6184 14.50931440 19017
0 COSMOS 2486
1 39177U 13028A   13290.11297146  .00000050  00000-0  23906-4 0  4250
2 39177 098.2915 003.8371 0012932 274.3735 085.5991 14.50931487 19068
0 COSMOS 2486
1 39177U 13028A   13290.31985641  .00000069  00000-0  28662-4 0  4261
2 39177 098.2915 004.0411 0012941 273.7359 086.2367 14.50931688 19092
0 COSMOS 2486
1 39177U 13028A   13290.80258770  .00000092  00000-0  34601-4 0  4278
2 39177 098.2915 004.5170 0012943 272.1688 087.8023 14.50932013 19166
0 COSMOS 2486
1 39177U 13028A   13291.14739630  .00000096  00000-0  35545-4 0  4288
2 39177 098.2917 004.8568 0012939 271.1328 088.8395 14.50932141 19218
0 COSMOS 2486
1 39177U 13028A   13291.42324281  .00000097  00000-0  35694-4 0  4298
2 39177 098.2917 005.1287 0012949 270.2131 089.7583 14.50932226 19250
0 COSMOS 2486
1 39177U 13028A   13291.76805108  .00000096  00000-0  35478-4 0  4308
2 39177 098.2917 005.4683 0012942 269.3130 090.6574 14.50932312 19307
0 COSMOS 2486
1 39177U 13028A   13292.11285968  .00000101  00000-0  36754-4 0  4310
2 39177 098.2917 005.8082 0012946 268.1732 091.7991 14.50932464 19351
0 COSMOS 2486
1 39177U 13028A   13292.45766762  .00000114  00000-0  40145-4 0  4327
2 39177 098.2917 006.1482 0012960 267.0100 092.9619 14.50932721 19404
0 COSMOS 2486
1 39177U 13028A   13292.80247573  .00000121  00000-0  41963-4 0  4338
2 39177 098.2920 006.4884 0012944 265.9742 093.9977 14.50932904 19454
0 COSMOS 2486
1 39177U 13028A   13292.87143731  .00000256  00000-0  76060-4 0  4342
2 39177 098.2921 006.5558 0012795 265.5953 094.3913 14.50934516 19465
0 COSMOS 2486
1 39177U 13028A   13293.07832224  .00038269  00000-0  96172-2 0  4357
2 39177 098.2954 006.7588 0013416 262.7456 097.3747 14.51023203 19498
0 COSMOS 2486
1 39177U 13028A   13293.21620711  .00023084  00000-0  58192-2 0  4369
2 39177 098.2941 006.8958 0013474 262.8414 097.1179 14.51021844 19514
0 COSMOS 2486
1 39177U 13028A   13293.49204001  .00006619  00000-0  16812-2 0  4378
2 39177 098.2942 007.1679 0013527 262.3572 097.6034 14.51013963 19550
0 COSMOS 2486
1 39177U 13028A   13293.83683069 -.00001930  00000-0 -47632-3 0  4380
2 39177 098.2938 007.5075 0013359 261.4747 098.4823 14.51005789 19604
0 COSMOS 2486
1 39177U 13028A   13294.18162287  .00001164  00000-0  30506-3 0  4393
2 39177 098.2909 007.8486 0013438 260.2802 099.6911 14.51010263 19657
0 COSMOS 2486
1 39177U 13028A   13294.52641230  .00001066  00000-0  28038-3 0  4401
2 39177 098.2911 008.1885 0013410 259.3433 100.6254 14.51010817 19700
0 COSMOS 2486
1 39177U 13028A   13294.87120238 -.00000404  00000-0 -90740-4 0  4417
2 39177 098.2913 008.5284 0013373 257.8956 102.0683 14.51007621 19756
0 COSMOS 2486
1 39177U 13028A   13295.21599439  .00000104  00000-0  37491-4 0  4429
2 39177 098.2908 008.8684 0013415 256.6018 103.3741 14.51008963 19805
0 COSMOS 2486
1 39177U 13028A   13295.56078371  .00000088  00000-0  33483-4 0  4433
2 39177 098.2909 009.2079 0013418 255.5530 104.4181 14.51008970 19852
0 COSMOS 2486
1 39177U 13028A   13295.83661608 -.00000265  00000-0 -55641-4 0  4444
2 39177 098.2913 009.4802 0013384 254.6085 105.3601 14.51007672 19899
0 COSMOS 2486
1 39177U 13028A   13296.18140718 -.00000011  00000-0  83721-5 0  4457
2 39177 098.2908 009.8198 0013410 253.5092 106.4661 14.51008601 19948
